{
    "links": {
        "self": "http://www.neowsapp.com/rest/v1/neo/3856733?api_key=iIulBulltgU6a56xZRHN4H3l9WmuAYTsLGpBGhQ2"
    },
    "id": "3856733",
    "neo_reference_id": "3856733",
    "name": "(2019 SA5)",
    "designation": "2019 SA5",
    "nasa_jpl_url": "http://ssd.jpl.nasa.gov/sbdb.cgi?sstr=3856733",
    "absolute_magnitude_h": 25.8,
    "estimated_diameter": {
        "kilometers": {
            "estimated_diameter_min": 0.0183888672,
            "estimated_diameter_max": 0.0411187571
        },
        "meters": {
            "estimated_diameter_min": 18.388867207,
            "estimated_diameter_max": 41.1187571041
        },
        "miles": {
            "estimated_diameter_min": 0.0114263088,
            "estimated_diameter_max": 0.0255500032
        },
        "feet": {
            "estimated_diameter_min": 60.3309310875,
            "estimated_diameter_max": 134.9040630575
        }
    },
    "is_potentially_hazardous_asteroid": false,
    "close_approach_data": [
        {
            "close_approach_date": "2019-09-29",
            "close_approach_date_full": "2019-Sep-29 15:21",
            "epoch_date_close_approach": 1569770460000,
            "relative_velocity": {
                "kilometers_per_second": "7.8117694601",
                "kilometers_per_hour": "28122.370056314",
                "miles_per_hour": "17474.1471052691"
            },
            "miss_distance": {
                "astronomical": "0.049216767",
                "lunar": "19.145322363",
                "kilometers": "7362723.51148629",
                "miles": "4574984.245199202"
            },
            "orbiting_body": "Earth"
        },
        {
            "close_approach_date": "2111-08-08",
            "close_approach_date_full": "2111-Aug-08 08:52",
            "epoch_date_close_approach": 4468467120000,
            "relative_velocity": {
                "kilometers_per_second": "4.2190551369",
                "kilometers_per_hour": "15188.5984929817",
                "miles_per_hour": "9437.6044358197"
            },
            "miss_distance": {
                "astronomical": "1.9921275177",
                "lunar": "774.9376043853",
                "kilometers": "298018033.416307299",
                "miles": "185179819.0625827662"
            },
            "orbiting_body": "Juptr"
        }
    ],
    "orbital_data": {
        "orbit_id": "4",
        "orbit_determination_date": "2019-11-07 01:46:47",
        "first_observation_date": "2019-09-26",
        "last_observation_date": "2019-10-08",
        "data_arc_in_days": 12,
        "observations_used": 28,
        "orbit_uncertainty": "8",
        "minimum_orbit_intersection": ".0339733",
        "jupiter_tisserand_invariant": "3.167",
        "epoch_osculation": "2458754.5",
        "eccentricity": ".5952245724329488",
        "semi_major_axis": "2.547713037008823",
        "inclination": "1.562640155492528",
        "ascending_node_longitude": "30.37899579842624",
        "orbital_period": "1485.334234776284",
        "perihelion_distance": "1.031251633873397",
        "perihelion_argument": "351.2138594258323",
        "aphelion_distance": "4.064174440144249",
        "perihelion_time": "2458768.288884230904",
        "mean_anomaly": "356.6579923852135",
        "mean_motion": ".2423696913268965",
        "equinox": "J2000",
        "orbit_class": {
            "orbit_class_type": "AMO",
            "orbit_class_description": "Near-Earth asteroid orbits similar to that of 1221 Amor",
            "orbit_class_range": "1.017 AU < q (perihelion) < 1.3 AU"
        }
    },
    "is_sentry_object": false
}